SatCatId,ObjectName,LaunchYear,OrbitalPeriod,LaunchMass,StatusCode,Inclination,Status,UcsData,OrbitClassEstimated,LaunchSiteCountry,Owner,UseType,Purpose,LaunchVehicleClass,TLE1,TLE2,MeanMotion,Eccentricity,OrbitClass
53144,STARLINK-4100,2022,95.44,260.0,+,53.22,Active,1,LEO,USA,USA,Commercial,Communications,Falcon,1 53144U 22083N   23223.77860859  .00003669  00000+0  24848-3 0  9996,2 53144  53.2174  78.0374 0000984  89.9985 270.1120 15.08843384 59808,15.08843384,9.84e-05,LEO
53145,STARLINK-4106,2022,95.44,260.0,+,53.22,Active,1,LEO,USA,USA,Commercial,Communications,Falcon,1 53145U 22083P   23223.76020928 -.00001544  00000+0 -78905-4 0  9997,2 53145  53.2160  78.1189 0001292 109.1710 250.9422 15.08841979 59802,15.08841979,0.0001292,LEO
53146,STARLINK-4099,2022,95.44,260.0,+,53.22,Active,1,LEO,USA,USA,Commercial,Communications,Falcon,1 53146U 22083Q   23223.77493401  .00001152  00000+0  90430-4 0  9999,2 53146  53.2163  78.0515 0000785 104.6359 255.4720 15.08834131 59806,15.08834131,7.85e-05,LEO
53147,STARLINK-4094,2022,95.44,260.0,+,53.22,Active,1,LEO,USA,USA,Commercial,Communications,Falcon,1 53147U 22083R   23223.75652886 -.00000316  00000+0 -17797-5 0  9991,2 53147  53.2164  78.1319 0001137  90.5292 269.5830 15.08835576 59804,15.08835576,0.0001137,LEO
53148,STARLINK-4066,2022,95.44,260.0,+,53.21,Active,1,LEO,USA,USA,Commercial,Communications,Falcon,1 53148U 22083S   23223.76485031  .00000351  00000+0  40115-4 0  9995,2 53148  53.2162  78.1058 0001108  90.4902 269.6217 15.08833551 59809,15.08833551,0.0001108,LEO
53149,STARLINK-4021,2022,95.44,260.0,+,53.22,Active,1,LEO,USA,USA,Commercial,Communications,Falcon,1 53149U 22083T   23223.76481167  .00001230  00000+0  95378-4 0  9990,2 53149  53.2161  68.0967 0001058  75.4891 284.6219 15.08837447 59942,15.08837447,0.0001058,LEO
53150,STARLINK-4038,2022,95.44,260.0,+,53.22,Active,1,LEO,USA,USA,Commercial,Communications,Falcon,1 53150U 22083U   23222.74544757 -.00000522  00000+0 -14737-4 0  9999,2 53150  53.2156  72.6750 0001179  87.4416 272.6711 15.08841767 59785,15.08841767,0.0001179,LEO
53151,STARLINK-4040,2022,95.44,260.0,+,53.22,Active,1,LEO,USA,USA,Commercial,Communications,Falcon,1 53151U 22083V   23223.79425379  .00001953  00000+0  14075-3 0  9995,2 53151  53.2172  67.9636 0000726  99.9958 260.1116 15.08830173 59948,15.08830173,7.26e-05,LEO
53152,STARLINK-4045,2022,95.44,260.0,+,53.22,Active,1,LEO,USA,USA,Commercial,Communications,Falcon,1 53152U 22083W   23223.73537392  .00001415  00000+0  10699-3 0  9990,2 53152  53.2173  68.2284 0000941  97.0817 263.0282 15.08832807 59936,15.08832807,9.41e-05,LEO
53153,STARLINK-4098,2022,95.44,260.0,+,53.22,Active,1,LEO,USA,USA,Commercial,Communications,Falcon,1 53153U 22083X   23223.72433103  .00001150  00000+0  90350-4 0  9994,2 53153  53.2165  68.2795 0001227  95.6744 264.4388 15.08836649 59936,15.08836649,0.0001227,LEO
53154,STARLINK-4077,2022,95.44,260.0,+,53.22,Active,1,LEO,USA,USA,Commercial,Communications,Falcon,1 53154U 22083Y   23223.26800829  .00002447  00000+0  17179-3 0  9994,2 53154  53.2170  70.3294 0001017  82.5388 277.5720 15.08842580 59865,15.0884258,0.0001017,LEO
53155,STARLINK-4088,2022,95.44,260.0,+,53.22,Active,1,LEO,USA,USA,Commercial,Communications,Falcon,1 53155U 22083Z   23223.78321120  .00002898  00000+0  20008-3 0  9999,2 53155  53.2168  68.0116 0000803  81.0821 279.0262 15.08843491 59947,15.08843491,8.03e-05,LEO
53156,STARLINK-4087,2022,95.44,260.0,+,53.22,Active,1,LEO,USA,USA,Commercial,Communications,Falcon,1 53156U 22083AA  23223.70591800  .00001291  00000+0  99160-4 0  9998,2 53156  53.2163  68.2354 0001053  68.4227 291.6877 15.08836568 59934,15.08836568,0.0001053,LEO
53157,STARLINK-4093,2022,95.44,260.0,+,53.22,Active,1,LEO,USA,USA,Commercial,Communications,Falcon,1 53157U 22083AB  23223.31216797  .00003635  00000+0  24630-3 0  9998,2 53157  53.2141  70.1271 0000868  76.1026 284.0063 15.08844588 59874,15.08844588,8.68e-05,LEO
53158,STARLINK-4054,2022,95.44,260.0,+,53.22,Active,1,LEO,USA,USA,Commercial,Communications,Falcon,1 53158U 22083AC  23223.78689222  .00002935  00000+0  20244-3 0  9996,2 53158  53.2168  67.9970 0001057 108.1467 251.9641 15.08838638 59942,15.08838638,0.0001057,LEO
53159,STARLINK-4111,2022,95.44,260.0,+,53.22,Active,1,LEO,USA,USA,Commercial,Communications,Falcon,1 53159U 22083AD  23223.76849141  .00003017  00000+0  20755-3 0  9992,2 53159  53.2168  68.0829 0001016  74.1176 285.9928 15.08843019 59946,15.08843019,0.0001016,LEO
53160,STARLINK-4096,2022,95.44,260.0,+,53.22,Active,1,LEO,USA,USA,Commercial,Communications,Falcon,1 53160U 22083AE  23223.77952978  .00002497  00000+0  17491-3 0  9992,2 53160  53.2166  68.0310 0000947  84.4328 275.6772 15.08842038 59949,15.08842038,9.47e-05,LEO
53161,STARLINK-4055,2022,95.44,260.0,+,53.22,Active,1,LEO,USA,USA,Commercial,Communications,Falcon,1 53161U 22083AF  23223.29377043  .00001263  00000+0  97424-4 0  9999,2 53161  53.2169  70.2122 0001073  86.6554 273.4561 15.08839268 59870,15.08839268,0.0001073,LEO
53162,STARLINK-4114,2022,95.44,260.0,+,53.22,Active,1,LEO,USA,USA,Commercial,Communications,Falcon,1 53162U 22083AG  23223.30944991  .00002620  00000+0  18265-3 0  9997,2 53162  53.2163  70.1473 0001144  95.0174 265.0949 15.08838011 59876,15.08838011,0.0001144,LEO
53163,STARLINK-4104,2022,95.44,260.0,+,53.22,Active,1,LEO,USA,USA,Commercial,Communications,Falcon,1 53163U 22083AH  23223.75104752  .00002829  00000+0  19573-3 0  9994,2 53163  53.2150  68.1575 0001223  75.8068 284.3060 15.08840993 59947,15.08840993,0.0001223,LEO
53164,STARLINK-4116,2022,95.44,260.0,+,53.22,Active,1,LEO,USA,USA,Commercial,Communications,Falcon,1 53164U 22083AJ  23223.36369118  .00003979  00000+0  26793-3 0  9990,2 53164  53.2156  69.8975 0000995  78.7154 281.3950 15.08841696 59888,15.08841696,9.95e-05,LEO
53165,STARLINK-4090,2022,95.44,260.0,+,53.22,Active,1,LEO,USA,USA,Commercial,Communications,Falcon,1 53165U 22083AK  23223.74641092  .00000204  00000+0  30903-4 0  9994,2 53165  53.2169  68.1814 0001100  84.2022 275.9095 15.08836481 59944,15.08836481,0.00011,LEO
53166,STARLINK-4110,2022,95.44,260.0,+,53.22,Active,1,LEO,USA,USA,Commercial,Communications,Falcon,1 53166U 22083AL  23223.29009073  .00001709  00000+0  12546-3 0  9995,2 53166  53.2170  70.2260 0001578  79.2983 280.8187 15.08840666 59874,15.08840666,0.0001578,LEO
53167,STARLINK-3683,2022,95.44,260.0,+,53.22,Active,1,LEO,USA,USA,Commercial,Communications,Falcon,1 53167U 22083AM  23223.23442800  .00001743  00000+0  12757-3 0  9991,2 53167  53.2164  55.4659 0000933  79.8534 280.2563 15.08835856 60078,15.08835856,9.33e-05,LEO
53168,STARLINK-4105,2022,95.44,260.0,+,53.22,Active,1,LEO,USA,USA,Commercial,Communications,Falcon,1 53168U 22083AN  23223.75009151  .00003578  00000+0  24277-3 0  9995,2 53168  53.2154  68.1627 0001063  89.9020 270.2094 15.08841956 59941,15.08841956,0.0001063,LEO
53169,STARLINK-4117,2022,95.44,260.0,+,53.22,Active,1,LEO,USA,USA,Commercial,Communications,Falcon,1 53169U 22083AP  23223.27862054  .00004011  00000+0  26993-3 0  9992,2 53169  53.2150  55.5396 0000917  78.3219 281.7876 15.08842681 60077,15.08842681,9.17e-05,LEO
53170,STARLINK-4095,2022,95.44,260.0,+,53.22,Active,1,LEO,USA,USA,Commercial,Communications,Falcon,1 53170U 22083AQ  23223.77814299 -.00000121  00000+0  10472-4 0  9992,2 53170  53.2158  62.9836 0001196 105.9234 254.1890 15.08842755 60018,15.08842755,0.0001196,LEO
53171,STARLINK-4052,2022,95.44,260.0,+,53.22,Active,1,LEO,USA,USA,Commercial,Communications,Falcon,1 53171U 22083AR  23223.75282069  .00003206  00000+0  21937-3 0  9998,2 53171  53.2153  37.9088 0001147  86.5371 273.5752 15.08845355 60366,15.08845355,0.0001147,LEO
53172,STARLINK-4299,2022,95.44,260.0,+,53.22,Active,1,LEO,USA,USA,Commercial,Communications,Falcon,1 53172U 22083AS  23223.77077739  .00000927  00000+0  76317-4 0  9997,2 53172  53.2182  62.9766 0000847 103.0778 257.0308 15.08840982 60019,15.08840982,8.47e-05,LEO
53173,STARLINK-4300,2022,95.44,260.0,+,53.22,Active,1,LEO,USA,USA,Commercial,Communications,Falcon,1 53173U 22083AT  23223.79102572  .00003041  00000+0  20904-3 0  9994,2 53173  53.2169  42.9701 0000822  79.8222 280.2863 15.08848758 60292,15.08848758,8.22e-05,LEO
53174,STARLINK-4205,2022,95.44,260.0,+,53.22,Active,1,LEO,USA,USA,Commercial,Communications,Falcon,1 53174U 22083AU  23223.75285060  .00001020  00000+0  82195-4 0  9991,2 53174  53.2159  78.1545 0001109  94.7949 265.3170 15.08837224 59806,15.08837224,0.0001109,LEO
53175,STARLINK-4292,2022,95.44,260.0,+,53.22,Active,1,LEO,USA,USA,Commercial,Communications,Falcon,1 53175U 22083AV  23223.74916987  .00000659  00000+0  59514-4 0  9996,2 53175  53.2150  78.1662 0001154 107.1361 252.9757 15.08836336 59801,15.08836336,0.0001154,LEO
53176,STARLINK-4294,2022,95.44,260.0,+,53.22,Active,1,LEO,USA,USA,Commercial,Communications,Falcon,1 53176U 22083AW  23223.75331950  .00040195  00000+0  25285-2 0  9994,2 53176  53.2166  53.0619 0000998  58.1225 301.9864 15.08850934 60156,15.08850934,9.98e-05,LEO
53177,STARLINK-4298,2022,95.44,260.0,+,53.22,Active,1,LEO,USA,USA,Commercial,Communications,Falcon,1 53177U 22083AX  23223.78366896  .00001437  00000+0  10834-3 0  9996,2 53177  53.2168  43.0009 0000682  80.0922 280.0147 15.08841723 60291,15.08841723,6.82e-05,LEO
53178,STARLINK-4280,2022,95.44,260.0,+,53.22,Active,1,LEO,USA,USA,Commercial,Communications,Falcon,1 53178U 22083AY  23223.27904859  .00001397  00000+0  10586-3 0  9997,2 53178  53.2162  70.2790 0001032  89.0397 271.0713 15.08840369 59854,15.08840369,0.0001032,LEO
53179,STARLINK-4276,2022,95.44,260.0,+,53.22,Active,1,LEO,USA,USA,Commercial,Communications,Falcon,1 53179U 22083AZ  23223.20540186  .00004196  00000+0  28150-3 0  9996,2 53179  53.2151  30.2053 0001139  71.0807 289.0309 15.08846840 60421,15.0884684,0.0001139,LEO
